[{"OBJECT_NAME":"STARLINK-2644","OBJECT_ID":"2021-040Q","EPOCH":"2026-03-09T12:29:13.742880","MEAN_MOTION":15.3026185,"ECCENTRICITY":2.35e-5,"INCLINATION":53.1593,"RA_OF_ASC_NODE":178.9056,"ARG_OF_PERICENTER":113.8154,"MEAN_ANOMALY":246.2871,"EPHEMERIS_TYPE":0,"CLASSIFICATION_TYPE":"U","NORAD_CAT_ID":48442,"ELEMENT_SET_NO":999,"REV_AT_EPOCH":26665,"BSTAR":0.001131098,"MEAN_MOTION_DOT":0.00033356,"MEAN_MOTION_DDOT":0},{"OBJECT_NAME":"SKYKRAFT-1A","OBJECT_ID":"2023-001AX","EPOCH":"2026-03-09T17:03:19.828224","MEAN_MOTION":15.28083228,"ECCENTRICITY":0.00112767,"INCLINATION":97.3349,"RA_OF_ASC_NODE":127.629,"ARG_OF_PERICENTER":121.5092,"MEAN_ANOMALY":238.7251,"EPHEMERIS_TYPE":0,"CLASSIFICATION_TYPE":"U","NORAD_CAT_ID":55054,"ELEMENT_SET_NO":999,"REV_AT_EPOCH":17652,"BSTAR":0.0003006872,"MEAN_MOTION_DOT":8.177e-5,"MEAN_MOTION_DDOT":0}]
