STARLINK-2644           
1 48442U 21040Q   26068.52029795  .00033356  00000+0  11311-2 0  9998
2 48442  53.1593 178.9056 0000235 113.8154 246.2871 15.30261850266655
SKYKRAFT-1A             
1 55054U 23001AX  26068.71064616  .00008177  00000+0  30069-3 0  9991
2 55054  97.3349 127.6290 0011277 121.5092 238.7251 15.28083228176529
